{"type": "FeatureCollection", "features": [ {"type": "Feature", "properties": {"norad_id": 34375, "name": "IRIDIUM 33 DEB", "group": "iridium-33-debris", "lat": -53.018440159263754, "lon": 177.12184611489664, "alt_km": 913.2332527437839, "timestamp": "2025-12-14T18:52:55.888655+00:00", "meta": {"OBJECT_NAME": "IRIDIUM 33 DEB", "OBJECT_ID": "1997-051FT", "EPOCH": "2025-12-13T19:31:13.647360", "MEAN_MOTION": 14.17994581, "ECCENTRICITY": 0.01033715, "INCLINATION": 86.4325, "RA_OF_ASC_NODE": 182.2662, "ARG_OF_PERICENTER": 123.3571, "MEAN_ANOMALY": 257.7603, "EPHEMERIS_TYPE": 0, "CLASSIFICATION_TYPE": "U", "NORAD_CAT_ID": 34375, "ELEMENT_SET_NO": 999, "REV_AT_EPOCH": 86727, "BSTAR": 0.00056520957, "MEAN_MOTION_DOT": 1.239e-05, "MEAN_MOTION_DDOT": 0}, "tle": {"line1": "1 34375U 97051FT  25347.81335240  .00001239  00000+0  56521-3 0  9997", "line2": "2 34375  86.4325 182.2662 0103371 123.3571 257.7603 14.17994581867275"}}, "geometry": {"type": "Point", "coordinates": [177.12184611489664, -53.018440159263754]}}, {"type": "Feature", "properties": {"norad_id": 34376, "name": "IRIDIUM 33 DEB", "group": "iridium-33-debris", "lat": -71.87083225407791, "lon": -5.782231422986736, "alt_km": 703.9951788482294, "timestamp": "2025-12-14T18:52:55.888665+00:00", "meta": {"OBJECT_NAME": "IRIDIUM 33 DEB", "OBJECT_ID": "1997-051FU", "EPOCH": "2025-12-13T12:00:57.265920", "MEAN_MOTION": 14.6258475, "ECCENTRICITY": 0.00272414, "INCLINATION": 86.2989, "RA_OF_ASC_NODE": 6.1981, "ARG_OF_PERICENTER": 164.1011, "MEAN_ANOMALY": 196.1062, "EPHEMERIS_TYPE": 0, "CLASSIFICATION_TYPE": "U", "NORAD_CAT_ID": 34376, "ELEMENT_SET_NO": 999, "REV_AT_EPOCH": 88018, "BSTAR": 0.0016904262, "MEAN_MOTION_DOT": 8.654e-05, "MEAN_MOTION_DDOT": 0}, "tle": {"line1": "1 34376U 97051FU  25347.50066280  .00008654  00000+0  16904-2 0  9997", "line2": "2 34376  86.2989   6.1981 0027241 164.1011 196.1062 14.62584750880184"}}, "geometry": {"type": "Point", "coordinates": [-5.782231422986736, -71.87083225407791]}}, {"type": "Feature", "properties": {"norad_id": 34486, "name": "IRIDIUM 33 DEB", "group": "iridium-33-debris", "lat": 28.70902951785783, "lon": 13.059702018486686, "alt_km": 576.2592986967511, "timestamp": "2025-12-14T18:52:55.888676+00:00", "meta": {"OBJECT_NAME": "IRIDIUM 33 DEB", "OBJECT_ID": "1997-051GB", "EPOCH": "2025-12-13T14:25:02.342784", "MEAN_MOTION": 14.95863937, "ECCENTRICITY": 0.00137431, "INCLINATION": 86.3939, "RA_OF_ASC_NODE": 11.6276, "ARG_OF_PERICENTER": 110.8846, "MEAN_ANOMALY": 15.3337, "EPHEMERIS_TYPE": 0, "CLASSIFICATION_TYPE": "U", "NORAD_CAT_ID": 34486, "ELEMENT_SET_NO": 999, "REV_AT_EPOCH": 88999, "BSTAR": 0.0025045383, "MEAN_MOTION_DOT": 0.0002814, "MEAN_MOTION_DDOT": 0}, "tle": {"line1": "1 34486U 97051GB  25347.60072156  .00028140  00000+0  25045-2 0  9997", "line2": "2 34486  86.3939  11.6276 0013743 110.8846  15.3337 14.95863937889994"}}, "geometry": {"type": "Point", "coordinates": [13.059702018486686, 28.70902951785783]}}, {"type": "Feature", "properties": {"norad_id": 34487, "name": "IRIDIUM 33 DEB", "group": "iridium-33-debris", "lat": 16.44539817319737, "lon": 12.577824205422699, "alt_km": 754.6434317284238, "timestamp": "2025-12-14T18:52:55.888687+00:00", "meta": {"OBJECT_NAME": "IRIDIUM 33 DEB", "OBJECT_ID": "1997-051GC", "EPOCH": "2025-12-13T20:18:23.741568", "MEAN_MOTION": 14.43217975, "ECCENTRICITY": 0.00328278, "INCLINATION": 86.3435, "RA_OF_ASC_NODE": 11.9011, "ARG_OF_PERICENTER": 124.9073, "MEAN_ANOMALY": 47.9317, "EPHEMERIS_TYPE": 0, "CLASSIFICATION_TYPE": "U", "NORAD_CAT_ID": 34487, "ELEMENT_SET_NO": 999, "REV_AT_EPOCH": 88264, "BSTAR": 0.00025436578, "MEAN_MOTION_DOT": 8.81e-06, "MEAN_MOTION_DDOT": 0}, "tle": {"line1": "1 34487U 97051GC  25347.84610812  .00000881  00000+0  25437-3 0  9999", "line2": "2 34487  86.3435  11.9011 0032827 124.9073  47.9317 14.43217975882640"}}, "geometry": {"type": "Point", "coordinates": [12.577824205422699, 16.44539817319737]}}, {"type": "Feature", "properties": {"norad_id": 34488, "name": "IRIDIUM 33 DEB", "group": "iridium-33-debris", "lat": -80.80903445642518, "lon": 148.21715808673818, "alt_km": 490.25978718593433, "timestamp": "2025-12-14T18:52:55.888697+00:00", "meta": {"OBJECT_NAME": "IRIDIUM 33 DEB", "OBJECT_ID": "1997-051GD", "EPOCH": "2025-12-13T21:20:06.708192", "MEAN_MOTION": 15.29804687, "ECCENTRICITY": 0.00127774, "INCLINATION": 86.3232, "RA_OF_ASC_NODE": 305.2445, "ARG_OF_PERICENTER": 49.9187, "MEAN_ANOMALY": 310.3179, "EPHEMERIS_TYPE": 0, "CLASSIFICATION_TYPE": "U", "NORAD_CAT_ID": 34488, "ELEMENT_SET_NO": 999, "REV_AT_EPOCH": 89257, "BSTAR": 0.0047409619, "MEAN_MOTION_DOT": 0.00139416, "MEAN_MOTION_DDOT": 0}, "tle": {"line1": "1 34488U 97051GD  25347.88896653  .00139416  00000+0  47410-2 0  9994", "line2": "2 34488  86.3232 305.2445 0012777  49.9187 310.3179 15.29804687892573"}}, "geometry": {"type": "Point", "coordinates": [148.21715808673818, -80.80903445642518]}}, {"type": "Feature", "properties": {"norad_id": 34492, "name": "IRIDIUM 33 DEB", "group": "iridium-33-debris", "lat": -19.75454713336245, "lon": -27.467746651308644, "alt_km": 852.4984292905119, "timestamp": "2025-12-14T18:52:55.888708+00:00", "meta": {"OBJECT_NAME": "IRIDIUM 33 DEB", "OBJECT_ID": "1997-051GH", "EPOCH": "2025-12-13T22:54:26.366112", "MEAN_MOTION": 14.25767221, "ECCENTRICITY": 0.01890212, "INCLINATION": 86.4717, "RA_OF_ASC_NODE": 334.1381, "ARG_OF_PERICENTER": 234.2097, "MEAN_ANOMALY": 154.7783, "EPHEMERIS_TYPE": 0, "CLASSIFICATION_TYPE": "U", "NORAD_CAT_ID": 34492, "ELEMENT_SET_NO": 999, "REV_AT_EPOCH": 85076, "BSTAR": 0.0043128894, "MEAN_MOTION_DOT": 0.00012385, "MEAN_MOTION_DDOT": 0}, "tle": {"line1": "1 34492U 97051GH  25347.95447183  .00012385  00000+0  43129-2 0  9995", "line2": "2 34492  86.4717 334.1381 0189021 234.2097 154.7783 14.25767221850766"}}, "geometry": {"type": "Point", "coordinates": [-27.467746651308644, -19.75454713336245]}}, {"type": "Feature", "properties": {"norad_id": 34497, "name": "IRIDIUM 33 DEB", "group": "iridium-33-debris", "lat": -48.1922448058851, "lon": -124.2988591840981, "alt_km": 821.057958766628, "timestamp": "2025-12-14T18:52:55.888718+00:00", "meta": {"OBJECT_NAME": "IRIDIUM 33 DEB", "OBJECT_ID": "1997-051GN", "EPOCH": "2025-12-13T15:30:28.114272", "MEAN_MOTION": 14.27457632, "ECCENTRICITY": 0.00787124, "INCLINATION": 86.2778, "RA_OF_ASC_NODE": 52.0141, "ARG_OF_PERICENTER": 336.6092, "MEAN_ANOMALY": 154.8087, "EPHEMERIS_TYPE": 0, "CLASSIFICATION_TYPE": "U", "NORAD_CAT_ID": 34497, "ELEMENT_SET_NO": 999, "REV_AT_EPOCH": 86896, "BSTAR": 0.0008195509, "MEAN_MOTION_DOT": 2.096e-05, "MEAN_MOTION_DDOT": 0}, "tle": {"line1": "1 34497U 97051GN  25347.64615873  .00002096  00000+0  81955-3 0  9997", "line2": "2 34497  86.2778  52.0141 0078712 336.6092 154.8087 14.27457632868965"}}, "geometry": {"type": "Point", "coordinates": [-124.2988591840981, -48.1922448058851]}}, {"type": "Feature", "properties": {"norad_id": 34508, "name": "IRIDIUM 33 DEB", "group": "iridium-33-debris", "lat": 72.2920172883059, "lon": -89.69423357698584, "alt_km": 732.2452331161949, "timestamp": "2025-12-14T18:52:55.888729+00:00", "meta": {"OBJECT_NAME": "IRIDIUM 33 DEB", "OBJECT_ID": "1997-051GZ", "EPOCH": "2025-12-13T19:00:33.641856", "MEAN_MOTION": 14.38440506, "ECCENTRICITY": 0.00661246, "INCLINATION": 86.3696, "RA_OF_ASC_NODE": 102.1967, "ARG_OF_PERICENTER": 169.6342, "MEAN_ANOMALY": 190.6238, "EPHEMERIS_TYPE": 0, "CLASSIFICATION_TYPE": "U", "NORAD_CAT_ID": 34508, "ELEMENT_SET_NO": 999, "REV_AT_EPOCH": 87324, "BSTAR": 0.0016313944, "MEAN_MOTION_DOT": 5.125e-05, "MEAN_MOTION_DDOT": 0}, "tle": {"line1": "1 34508U 97051GZ  25347.79205604  .00005125  00000+0  16314-2 0  9995", "line2": "2 34508  86.3696 102.1967 0066124 169.6342 190.6238 14.38440506873244"}}, "geometry": {"type": "Point", "coordinates": [-89.69423357698584, 72.2920172883059]}}, {"type": "Feature", "properties": {"norad_id": 34521, "name": "IRIDIUM 33 DEB", "group": "iridium-33-debris", "lat": 70.41219118225234, "lon": -160.59928512291395, "alt_km": 675.6372221393667, "timestamp": "2025-12-14T18:52:55.888739+00:00", "meta": {"OBJECT_NAME": "IRIDIUM 33 DEB", "OBJECT_ID": "1997-051HN", "EPOCH": "2025-12-13T21:03:01.574784", "MEAN_MOTION": 14.63381841, "ECCENTRICITY": 0.00016684, "INCLINATION": 86.3805, "RA_OF_ASC_NODE": 30.0474, "ARG_OF_PERICENTER": 207.7885, "MEAN_ANOMALY": 152.3238, "EPHEMERIS_TYPE": 0, "CLASSIFICATION_TYPE": "U", "NORAD_CAT_ID": 34521, "ELEMENT_SET_NO": 999, "REV_AT_EPOCH": 88489, "BSTAR": 0.0010009577, "MEAN_MOTION_DOT": 5.194e-05, "MEAN_MOTION_DDOT": 0}, "tle": {"line1": "1 34521U 97051HN  25347.87710156  .00005194  00000+0  10010-2 0  9995", "line2": "2 34521  86.3805  30.0474 0001668 207.7885 152.3238 14.63381841884893"}}, "geometry": {"type": "Point", "coordinates": [-160.59928512291395, 70.41219118225234]}}, {"type": "Feature", "properties": {"norad_id": 34525, "name": "IRIDIUM 33 DEB", "group": "iridium-33-debris", "lat": 42.11197744460394, "lon": -137.31661487329103, "alt_km": 742.3920399141816, "timestamp": "2025-12-14T18:52:55.888749+00:00", "meta": {"OBJECT_NAME": "IRIDIUM 33 DEB", "OBJECT_ID": "1997-051HS", "EPOCH": "2025-12-13T16:11:18.522816", "MEAN_MOTION": 14.42909183, "ECCENTRICITY": 0.00066446, "INCLINATION": 86.3731, "RA_OF_ASC_NODE": 46.4448, "ARG_OF_PERICENTER": 93.1632, "MEAN_ANOMALY": 30.6633, "EPHEMERIS_TYPE": 0, "CLASSIFICATION_TYPE": "U", "NORAD_CAT_ID": 34525, "ELEMENT_SET_NO": 999, "REV_AT_EPOCH": 88101, "BSTAR": 0.00049523387, "MEAN_MOTION_DOT": 1.674e-05, "MEAN_MOTION_DDOT": 0}, "tle": {"line1": "1 34525U 97051HS  25347.67451994  .00001674  00000+0  49523-3 0  9990", "line2": "2 34525  86.3731  46.4448 0006644  93.1632  30.6633 14.42909183881013"}}, "geometry": {"type": "Point", "coordinates": [-137.31661487329103, 42.11197744460394]}}]}